#dP2024 10  7  0  0  0.00000000      97 __u+U IGS20 FIT  IAC
## 2335  86400.00000000   900.00000000 60590 0.0000000000000
+  119   C06C07C08C09C10C11C12C13C14C16C19C20C21C22C23C24C25
+        C26C27C28C29C30C32C33C34C35C36C37C38C39C40C41C42C43
+        C44C45E02E03E04E05E06E07E08E09E10E11E12E13E14E15E18
+        E19E21E24E25E26E27E29E30E31E33E34E36G02G03G04G05G06
+        G07G08G09G10G11G12G13G14G15G16G17G18G19G20G21G22G23
+        G24G25G26G27G28G29G30G31G32J02J03J04R01R02R03R04R05
+        R07R08R09R11R12R14R15R16R17R18R19R20R21R22R24R25R26
++         8  8  9  8  8  8  8  8  7  8  7  6  7  6  7  6  6
++         6  6  6  7  6  6  6  6  7  7  6  7  7  7  6  7  7
++         7  7  4  4  5  5  5  4  4  5  5  5  5  4  5  4  5
++         5  5  5  4  4  5  5  4  5  5  5  5  4  4  4  4  4
++         4  4  4  4  4  4  4  4  4  4  4  4  4  4  4  4  4
++         4  4  4  4  4  4  4  4  4 11 11 11  8  7  7  7  7
++         7  7  7  7  7  7  7  8  7  7  8  8  7  7  8  9  8
%c M  cc GPS ccc cccc cccc cccc cccc ccccc ccccc ccccc ccccc
%c cc cc ccc ccc cccc cccc cccc cccc ccccc ccccc ccccc ccccc
%f  1.2500000  1.025000000  0.00000000000  0.000000000000000
%f  0.0000000  0.000000000  0.00000000000  0.000000000000000
%i    0    0    0    0      0      0      0      0         0
%i    0    0    0    0      0      0      0      0         0
/* INFORMATION & ANALYSIS CENTER (IAC)            FINAL DATA
/* S/V CLOCKS ARE ALIGNED TO GNSS TIME                      
/* G:C1WC2W R:C1PC2P E:C1XC5X C:C2IC6I J:C1CC2S             
/* PCV:IGS20_2317 OL/AL:FES2004  NONE     YN ORB:CoN CLK:CoN
*  2024 10 07 16 15  0.00000000
PC06  -5495.521565  40538.123743  -9517.790243    299.724070
PC07  -8026.477464  26762.938320  31716.759998   -309.220061
PC08 -20725.969786  29099.722821 -22613.928285   -631.843987
PC09  -2021.103674  41673.722963  -2101.390800   -442.595896
PC10    597.600904  28970.645272  31112.898876   -216.476197
PC11  14175.018960  23631.887113  -4377.985846    182.521777
PC12   1534.842711  24339.106946  13619.027909   -260.609474
PC13 -12921.196117  29485.469749 -27224.181508     98.314314
PC14  17075.111096  12961.068203 -17894.584048   -284.197925
PC16  -8678.379084  38335.247641 -14442.133198    199.985631
PC19 -24289.525657  -8518.541682  10766.987024   -945.595611
PC20  -8917.712178 -15072.660504  21718.189955   -936.922332
PC21 -13524.305175  13115.989170 -20577.431726   -924.024318
PC22 -26756.067929   3363.704570  -7155.862208    144.812558
PC23  20379.988842  -9801.158230  16348.601961   -852.077424
PC24  -1596.342204  23151.498472  15504.721802    806.769960
PC25  13388.445145   9338.550930  22622.829573    526.569271
PC26 -14940.722724  23587.265378   -572.652279   -359.449486
PC27   5694.626234 -19184.841897 -19465.117905    379.182604
PC28  15910.216715  -3804.590002 -22599.723053    294.218448
PC29 -18799.411590 -17110.117686  11508.165368    345.473688
PC30  -8830.428257 -25635.694361  -6639.572528   -247.358726
PC32  13590.183637 -13186.156197  20505.843188   -758.829519
PC33  24303.967516   8421.813962 -10847.054862   -960.522664
PC34  10070.789619  25536.183125   4975.634314    537.349720
PC35 -16136.686391   3759.195362  22446.754478    241.474613
PC36 -13517.389519  -9116.954674 -22627.415011    198.253362
PC37  15497.103347 -23178.387098    679.001265   -894.259472
PC38 -25562.007441  30291.048827 -14588.213465    183.838889
PC39  -9817.795820  35858.218726 -19599.511638    -10.063953
PC40 -11945.728577  20497.285980  34884.745916    -95.386798
PC41  27054.770307  -2908.753707   6267.484379   -901.073249
PC42   6916.267921  15352.032211 -22226.367862   -489.752099
PC43  18614.969820  17848.400076 -10650.869197     88.202911
PC44  -5160.668792  19324.420816  19438.438477    615.529424
PC45 -20317.937105   9310.488878 -16731.959786   -144.110396
PE02  23764.273230 -15615.115159  -8192.771349    165.124955
PE03  14222.549688 -10078.176948  23912.298780   -145.352982
PE04   5491.590160  21508.289117 -19582.421245    -51.420829
PE05  25081.569981   6989.800767  14075.918730   4790.823718
PE06  14550.263013  22539.678140 -12518.954640    -33.726160
PE07 -21172.105581 -20214.809694   4356.539675   -146.086728
PE08  -4740.452146 -21182.481297  20111.451995   -347.678866
PE09  21138.263162  20246.741530  -4458.815499   -617.338079
PE10   3636.776385  27085.481782 -11393.862300   -661.632279
PE11   9898.610259  19964.337769 -19489.867619   1358.404691
PE12  -2416.689475  29379.201750  -2648.749899  -1241.921298
PE13  -9546.705799 -20447.321280  19160.339075    -25.519154
PE14 -20830.423437  -8049.362706   7224.513732    277.761123
PE15   2838.704379 -29396.225336   1976.810640   -131.665358
PE18  28642.774044   9265.853073 -12146.557516    632.046426
PE19 -15742.337818   8359.689385 -23632.650897    739.731873
PE21 -27617.727674   3694.493778  -9990.920025   -621.117074
PE24  15203.362776  11036.405446  22858.374140  -1029.495165
PE25  27511.511057  -3348.402193  10397.150568      9.875070
PE26 -16339.563289    844.728704  24675.480422   -247.599367
PE27 -15352.454231 -10864.250412 -22854.657217   -471.802632
PE29 -25040.416745  -6624.514737 -14349.212691    -35.877501
PE30   5786.063991 -18857.499795 -22072.215713   -794.767294
PE31  -5814.636172  18841.379361  22087.610896    -38.450984
PE33 -13534.034388  20575.090262  16438.704343     15.712108
PE34  13331.315660 -20944.988892 -16103.244290   -138.677546
PE36  16114.796637   -235.016937 -24822.297715   -293.772672
PG02 -13855.923581  10788.627243  20296.303746   -342.136765
PG03 -22921.200617  13040.724243  -2782.598279    562.829634
PG04 -16011.897529   5798.672702 -20406.769704    457.475681
PG05  23214.067203  -2723.979851 -12858.828406   -189.037132
PG06   5688.132361  23055.868502 -11716.736858    -21.706419
PG07  -6487.047495  24490.594644  -6610.583178    -29.879336
PG08 -23081.023239  -3520.280673  12945.900523    377.044718
PG09  -6076.119317  14184.556202 -21705.840141    388.580011
PG10  -3542.170204 -14552.269978  22122.064645   -150.398388
PG11  13090.564130  10431.244637 -20602.316200   -741.969201
PG12  24722.491598  -9605.295347    500.085347   -543.477948
PG13  21988.838734  12841.987728   7738.864529    680.324168
PG14   -725.165644  16724.758846  20619.254503    512.360863
PG15  23118.274687    521.465430  12684.669611    213.001104
PG16 -21625.118359  -3438.729293 -15679.826405   -161.067272
PG17   9015.634988  20096.380223  15127.630865    603.274701
PG18   6367.606168 -24938.117544  -6033.529316   -657.049908
PG19  16536.807551  19936.639757   6666.520264    547.591094
PG20  16684.609150   5199.772446 -19884.870767    369.900639
PG21 -15168.268844   3455.096571  21826.134619    100.256347
PG22   7247.373426  13684.426675  21970.495722    -68.939383
PG23  10573.354845 -17891.790579  16435.041849    336.586969
PG24  14474.867352  -8810.385060  19908.998723   -485.432710
PG25  17351.421562 -17212.705626 -10409.607520    499.577943
PG26 -12550.845151 -10742.621771 -21013.276906     61.454887
PG27 -23333.513681 -12641.500907   3384.592111    -34.398865
PG28  -5669.869070 -24149.199277  -9504.073829   -437.829089
PG29   9105.169240 -11990.192042 -21922.169787   -572.884662
PG30    484.582401  26238.735934   3151.213022   -306.966418
PG31 -11821.762126 -14931.065538 -18590.053677   -223.714947
PG32 -12047.774338 -19502.342775  13805.543470   -589.387227
PJ02 -30821.896648  25838.937815  17933.607022     -1.207658
PJ03 -28002.023802  25592.928965  23539.585851     -4.190155
PJ04 -30045.241522  19464.379436 -17242.641898     22.045254
PR01  -6712.062342   9588.151192 -22669.173010    100.258673
PR02  11322.566653  12064.540639 -19347.674396    -25.042050
PR03  23684.720846   7958.784001  -4919.242256    108.970133
PR04  22646.537862     22.416496  11739.642822    258.208071
PR05   9634.760111  -8132.723237  22172.875405    138.805786
PR07 -23890.585561  -7840.555095   4505.111240     92.445079
PR08 -22605.037067    300.900514 -11803.381196     -6.422686
PR09   1008.931292 -16034.459127 -19821.012774    213.375587
PR11 -18722.491340  10970.342569 -13381.915163      9.879130
PR12 -14763.277385  19977.684234   5850.898383     45.740135
PR14  12230.784741   2629.785255  22245.880513     27.033692
PR15  19075.042379 -12067.436110  11910.264714     75.113945
PR16  14855.772411 -19979.424856  -5624.895377     29.764200
PR17  12365.104444  14497.919876 -16972.866201    128.681768
PR18  10273.341849  -2316.239035 -23211.543400    165.736876
PR19   4616.060096 -16543.610621 -18847.944606   -294.030197
PR20  -6070.928204 -24791.880755     52.261347   -120.122236
PR21 -12099.520982 -15247.477346  16469.520128   -140.797768
PR22 -10408.285219   3450.155971  23060.601467     27.465237
PR24   7445.227704  24406.948231   -512.732402    -75.067247
PR25 -12074.266353 -14479.695869  17176.490521    -94.196558
PR26 -23263.042815   -374.820452 -10424.027627     65.927906
EOF
